STARLINK-5626           
1 55435U 23014AW  26025.52431634  .00000980  00000+0  89863-4 0  9999
2 55435  69.9990 213.2615 0002534 274.7235  85.3634 14.98336328164603
STARLINK-5640           
1 55436U 23014AX  26025.53683738  .00000422  00000+0  43162-4 0  9998
2 55436  69.9984 213.3026 0002762 269.9191  90.1652 14.98331020164602
STARLINK-5074           
1 55438U 23014AZ  26025.51966959  .00000888  00000+0  82193-4 0  9990
2 55438  69.9997 173.1282 0001906 289.1183  70.9769 14.98338245165599
STARLINK-5634           
1 55439U 23014BA  26025.94156758  .00001847  00000+0  16249-3 0  9990
2 55439  70.0012 212.3093 0002932 284.6435  75.4399 14.98341520164663
STARLINK-5699           
1 55449U 23015A   26025.84273914 -.00000039  00000+0  12219-4 0  9992
2 55449  43.0020 199.2457 0001195 270.2973  89.7732 15.02537051165244
STARLINK-5686           
1 55450U 23015B   26025.84607448  .00001652  00000+0  13730-3 0  9996
2 55450  43.0024 199.2725 0001070 264.1196  95.9525 15.02540698165249
STARLINK-5656           
1 55451U 23015C   26025.83941614  .00000192  00000+0  29315-4 0  9997
2 55451  43.0022 199.2225 0001192 227.4777 132.5965 15.02510058164304
STARLINK-5683           
1 55452U 23015D   26025.83496087  .00001419  00000+0  12007-3 0  9999
2 55452  43.0025 199.1858 0001021 266.8554  93.2171 15.02546291164300
STARLINK-5684           
1 55453U 23015E   26025.49925649  .00001872  00000+0  15361-3 0  9992
2 55453  43.0028 200.9669 0001492 272.4167  87.6505 15.02539434164253
STARLINK-5636           
1 55454U 23015F   26024.89429051  .00002121  00000+0  17210-3 0  9995
2 55454  43.0025 204.1591 0001157 265.4861  94.5849 15.02529122164163
STARLINK-5680           
1 55455U 23015G   26025.77182747  .00001924  00000+0  15743-3 0  9991
2 55455  43.0023 199.5728 0001295 268.5182  91.5512 15.02540230164295
STARLINK-5058           
1 55456U 23015H   26025.82608438  .00001887  00000+0  15464-3 0  9996
2 55456  43.0027 199.1195 0001060 275.8761  84.1960 15.02552711164302
STARLINK-5682           
1 55457U 23015J   26025.76182866  .00000947  00000+0  85147-4 0  9994
2 55457  43.0028 199.4991 0001129 260.2658  99.8057 15.02541906164292
STARLINK-5020           
1 55458U 23015K   26025.74851131  .00002204  00000+0  17812-3 0  9992
2 55458  43.0021 199.3957 0000899 260.1980  99.8761 15.02544613164297
STARLINK-5669           
1 55459U 23015L   26025.88591274 -.00004099  00000+0 -28839-3 0  9994
2 55459  43.0031 198.7085 0001092 216.5617 143.5151 15.02553944164312
STARLINK-5678           
1 55460U 23015M   26025.55019345  .00002135  00000+0  17306-3 0  9998
2 55460  43.0026 200.4901 0001284 273.2408  86.8287 15.02541365164264
