[{"OBJECT_NAME":"STARLINK-5626","OBJECT_ID":"2023-014AW","EPOCH":"2026-01-25T12:35:00.931776","MEAN_MOTION":14.98336328,"ECCENTRICITY":0.0002534,"INCLINATION":69.999,"RA_OF_ASC_NODE":213.2615,"ARG_OF_PERICENTER":274.7235,"MEAN_ANOMALY":85.3634,"EPHEMERIS_TYPE":0,"CLASSIFICATION_TYPE":"U","NORAD_CAT_ID":55435,"ELEMENT_SET_NO":999,"REV_AT_EPOCH":16460,"BSTAR":8.9863231e-5,"MEAN_MOTION_DOT":9.8e-6,"MEAN_MOTION_DDOT":0},{"OBJECT_NAME":"STARLINK-5640","OBJECT_ID":"2023-014AX","EPOCH":"2026-01-25T12:53:02.749632","MEAN_MOTION":14.9833102,"ECCENTRICITY":0.0002762,"INCLINATION":69.9984,"RA_OF_ASC_NODE":213.3026,"ARG_OF_PERICENTER":269.9191,"MEAN_ANOMALY":90.1652,"EPHEMERIS_TYPE":0,"CLASSIFICATION_TYPE":"U","NORAD_CAT_ID":55436,"ELEMENT_SET_NO":999,"REV_AT_EPOCH":16460,"BSTAR":4.3162e-5,"MEAN_MOTION_DOT":4.22e-6,"MEAN_MOTION_DDOT":0},{"OBJECT_NAME":"STARLINK-5074","OBJECT_ID":"2023-014AZ","EPOCH":"2026-01-25T12:28:19.452576","MEAN_MOTION":14.98338245,"ECCENTRICITY":0.0001906,"INCLINATION":69.9997,"RA_OF_ASC_NODE":173.1282,"ARG_OF_PERICENTER":289.1183,"MEAN_ANOMALY":70.9769,"EPHEMERIS_TYPE":0,"CLASSIFICATION_TYPE":"U","NORAD_CAT_ID":55438,"ELEMENT_SET_NO":999,"REV_AT_EPOCH":16559,"BSTAR":8.2192782e-5,"MEAN_MOTION_DOT":8.88e-6,"MEAN_MOTION_DDOT":0},{"OBJECT_NAME":"STARLINK-5634","OBJECT_ID":"2023-014BA","EPOCH":"2026-01-25T22:35:51.438912","MEAN_MOTION":14.9834152,"ECCENTRICITY":0.00029327,"INCLINATION":70.0012,"RA_OF_ASC_NODE":212.3093,"ARG_OF_PERICENTER":284.6435,"MEAN_ANOMALY":75.4399,"EPHEMERIS_TYPE":0,"CLASSIFICATION_TYPE":"U","NORAD_CAT_ID":55439,"ELEMENT_SET_NO":999,"REV_AT_EPOCH":16466,"BSTAR":0.00016248587,"MEAN_MOTION_DOT":1.847e-5,"MEAN_MOTION_DDOT":0},{"OBJECT_NAME":"STARLINK-5699","OBJECT_ID":"2023-015A","EPOCH":"2026-01-25T20:13:32.661696","MEAN_MOTION":15.02537051,"ECCENTRICITY":0.00011953,"INCLINATION":43.002,"RA_OF_ASC_NODE":199.2457,"ARG_OF_PERICENTER":270.2973,"MEAN_ANOMALY":89.7732,"EPHEMERIS_TYPE":0,"CLASSIFICATION_TYPE":"U","NORAD_CAT_ID":55449,"ELEMENT_SET_NO":999,"REV_AT_EPOCH":16524,"BSTAR":1.2219194e-5,"MEAN_MOTION_DOT":-3.9e-7,"MEAN_MOTION_DDOT":0},{"OBJECT_NAME":"STARLINK-5686","OBJECT_ID":"2023-015B","EPOCH":"2026-01-25T20:18:20.835072","MEAN_MOTION":15.02540698,"ECCENTRICITY":0.00010706,"INCLINATION":43.0024,"RA_OF_ASC_NODE":199.2725,"ARG_OF_PERICENTER":264.1196,"MEAN_ANOMALY":95.9525,"EPHEMERIS_TYPE":0,"CLASSIFICATION_TYPE":"U","NORAD_CAT_ID":55450,"ELEMENT_SET_NO":999,"REV_AT_EPOCH":16524,"BSTAR":0.00013730401,"MEAN_MOTION_DOT":1.652e-5,"MEAN_MOTION_DDOT":0},{"OBJECT_NAME":"STARLINK-5656","OBJECT_ID":"2023-015C","EPOCH":"2026-01-25T20:08:45.554496","MEAN_MOTION":15.02510058,"ECCENTRICITY":0.00011925,"INCLINATION":43.0022,"RA_OF_ASC_NODE":199.2225,"ARG_OF_PERICENTER":227.4777,"MEAN_ANOMALY":132.5965,"EPHEMERIS_TYPE":0,"CLASSIFICATION_TYPE":"U","NORAD_CAT_ID":55451,"ELEMENT_SET_NO":999,"REV_AT_EPOCH":16430,"BSTAR":2.9315424e-5,"MEAN_MOTION_DOT":1.92e-6,"MEAN_MOTION_DDOT":0},{"OBJECT_NAME":"STARLINK-5683","OBJECT_ID":"2023-015D","EPOCH":"2026-01-25T20:02:20.619168","MEAN_MOTION":15.02546291,"ECCENTRICITY":0.00010219,"INCLINATION":43.0025,"RA_OF_ASC_NODE":199.1858,"ARG_OF_PERICENTER":266.8554,"MEAN_ANOMALY":93.2171,"EPHEMERIS_TYPE":0,"CLASSIFICATION_TYPE":"U","NORAD_CAT_ID":55452,"ELEMENT_SET_NO":999,"REV_AT_EPOCH":16430,"BSTAR":0.00012006915,"MEAN_MOTION_DOT":1.419e-5,"MEAN_MOTION_DDOT":0},{"OBJECT_NAME":"STARLINK-5684","OBJECT_ID":"2023-015E","EPOCH":"2026-01-25T11:58:55.760736","MEAN_MOTION":15.02539434,"ECCENTRICITY":0.00014925,"INCLINATION":43.0028,"RA_OF_ASC_NODE":200.9669,"ARG_OF_PERICENTER":272.4167,"MEAN_ANOMALY":87.6505,"EPHEMERIS_TYPE":0,"CLASSIFICATION_TYPE":"U","NORAD_CAT_ID":55453,"ELEMENT_SET_NO":999,"REV_AT_EPOCH":16425,"BSTAR":0.00015361381,"MEAN_MOTION_DOT":1.872e-5,"MEAN_MOTION_DDOT":0},{"OBJECT_NAME":"STARLINK-5636","OBJECT_ID":"2023-015F","EPOCH":"2026-01-24T21:27:46.700064","MEAN_MOTION":15.02529122,"ECCENTRICITY":0.0001157,"INCLINATION":43.0025,"RA_OF_ASC_NODE":204.1591,"ARG_OF_PERICENTER":265.4861,"MEAN_ANOMALY":94.5849,"EPHEMERIS_TYPE":0,"CLASSIFICATION_TYPE":"U","NORAD_CAT_ID":55454,"ELEMENT_SET_NO":999,"REV_AT_EPOCH":16416,"BSTAR":0.0001721,"MEAN_MOTION_DOT":2.121e-5,"MEAN_MOTION_DDOT":0},{"OBJECT_NAME":"STARLINK-5680","OBJECT_ID":"2023-015G","EPOCH":"2026-01-25T18:31:25.893408","MEAN_MOTION":15.0254023,"ECCENTRICITY":0.00012957,"INCLINATION":43.0023,"RA_OF_ASC_NODE":199.5728,"ARG_OF_PERICENTER":268.5182,"MEAN_ANOMALY":91.5512,"EPHEMERIS_TYPE":0,"CLASSIFICATION_TYPE":"U","NORAD_CAT_ID":55455,"ELEMENT_SET_NO":999,"REV_AT_EPOCH":16429,"BSTAR":0.00015742721,"MEAN_MOTION_DOT":1.924e-5,"MEAN_MOTION_DDOT":0},{"OBJECT_NAME":"STARLINK-5058","OBJECT_ID":"2023-015H","EPOCH":"2026-01-25T19:49:33.690432","MEAN_MOTION":15.02552711,"ECCENTRICITY":0.00010601,"INCLINATION":43.0027,"RA_OF_ASC_NODE":199.1195,"ARG_OF_PERICENTER":275.8761,"MEAN_ANOMALY":84.196,"EPHEMERIS_TYPE":0,"CLASSIFICATION_TYPE":"U","NORAD_CAT_ID":55456,"ELEMENT_SET_NO":999,"REV_AT_EPOCH":16430,"BSTAR":0.00015464229,"MEAN_MOTION_DOT":1.887e-5,"MEAN_MOTION_DDOT":0},{"OBJECT_NAME":"STARLINK-5682","OBJECT_ID":"2023-015J","EPOCH":"2026-01-25T18:17:01.996224","MEAN_MOTION":15.02541906,"ECCENTRICITY":0.0001129,"INCLINATION":43.0028,"RA_OF_ASC_NODE":199.4991,"ARG_OF_PERICENTER":260.2658,"MEAN_ANOMALY":99.8057,"EPHEMERIS_TYPE":0,"CLASSIFICATION_TYPE":"U","NORAD_CAT_ID":55457,"ELEMENT_SET_NO":999,"REV_AT_EPOCH":16429,"BSTAR":8.5147173e-5,"MEAN_MOTION_DOT":9.47e-6,"MEAN_MOTION_DDOT":0},{"OBJECT_NAME":"STARLINK-5020","OBJECT_ID":"2023-015K","EPOCH":"2026-01-25T17:57:51.377184","MEAN_MOTION":15.02544613,"ECCENTRICITY":8.993e-5,"INCLINATION":43.0021,"RA_OF_ASC_NODE":199.3957,"ARG_OF_PERICENTER":260.198,"MEAN_ANOMALY":99.8761,"EPHEMERIS_TYPE":0,"CLASSIFICATION_TYPE":"U","NORAD_CAT_ID":55458,"ELEMENT_SET_NO":999,"REV_AT_EPOCH":16429,"BSTAR":0.00017812055,"MEAN_MOTION_DOT":2.204e-5,"MEAN_MOTION_DDOT":0},{"OBJECT_NAME":"STARLINK-5669","OBJECT_ID":"2023-015L","EPOCH":"2026-01-25T21:15:42.860736","MEAN_MOTION":15.02553944,"ECCENTRICITY":0.00010924,"INCLINATION":43.0031,"RA_OF_ASC_NODE":198.7085,"ARG_OF_PERICENTER":216.5617,"MEAN_ANOMALY":143.5151,"EPHEMERIS_TYPE":0,"CLASSIFICATION_TYPE":"U","NORAD_CAT_ID":55459,"ELEMENT_SET_NO":999,"REV_AT_EPOCH":16431,"BSTAR":-0.00028838647,"MEAN_MOTION_DOT":-4.099e-5,"MEAN_MOTION_DDOT":0},{"OBJECT_NAME":"STARLINK-5678","OBJECT_ID":"2023-015M","EPOCH":"2026-01-25T13:12:16.714080","MEAN_MOTION":15.02541365,"ECCENTRICITY":0.0001284,"INCLINATION":43.0026,"RA_OF_ASC_NODE":200.4901,"ARG_OF_PERICENTER":273.2408,"MEAN_ANOMALY":86.8287,"EPHEMERIS_TYPE":0,"CLASSIFICATION_TYPE":"U","NORAD_CAT_ID":55460,"ELEMENT_SET_NO":999,"REV_AT_EPOCH":16426,"BSTAR":0.00017306,"MEAN_MOTION_DOT":2.135e-5,"MEAN_MOTION_DDOT":0}]
